STARLINK-4186           
1 52880U 22062BC  22253.58334491 -.01257042  00000+0 -24215-1 0  9993
2 52880  53.2177 345.2229 0001992  23.3062 327.2638 15.50108590 13878
STARLINK-4192           
1 52881U 22062BD  22253.58334491 -.01070983  00000+0 -20946-1 0  9998
2 52881  53.2177 345.2125 0002092  26.5435 323.2127 15.49688934 13877
STARLINK-4181           
1 52882U 22062BE  22253.58334491 -.00341579  00000+0 -62313-2 0  9995
2 52882  53.2169 345.2444 0001991  26.9732 325.2048 15.50084944 13871
GLOBALSTAR FM15         
1 52888U 22064A   22252.67098802 -.00000128  00000+0  00000+0 0  9998
2 52888  51.9795 302.6691 0010098 162.3212 197.8053 13.37541162 11009
PVSAT                   
1 52894U 22065A   22252.86645198  .00000163  00000+0  45682-4 0  9991
2 52894  98.0317  41.2805 0009473 355.6512   4.4604 14.57470476 11733
KSLV-II DUMMY           
1 52895U 22065B   22252.96688707  .00000008  00000+0  11312-4 0  9997
2 52895  98.0329  41.4707 0008582  14.0274 346.1162 14.58143132 11766
STEP CUBE LAB-II        
1 52897U 22065D   22253.51187678  .00000556  00000+0  12985-3 0  9996
2 52897  98.0302  41.9933 0009540  15.6276 344.5243 14.58315909 10662
RANDEV                  
1 52898U 22065E   22253.44097548  .00000553  00000+0  12899-3 0  9996
2 52898  98.0303  41.9313 0009022  18.0720 342.0819 14.58382189 10376
SNUGLITE-II             
1 52899U 22065F   22253.37235414  .00000609  00000+0  14093-3 0  9995
2 52899  98.0300  41.8623 0008590  19.3405 340.8131 14.58408876 10072
MIMAN                   
1 52900U 22065G   22252.83288973  .00000416  00000+0  99616-4 0  9997
2 52900  98.0275  41.3220 0008323  14.5301 345.6134 14.58217202  9615
TIANXING-1              
1 52901U 22066A   22253.54416544  .00172331  13320-4  42641-3 0  9990
2 52901  96.7559 298.2780 0012406 281.4383 216.1688 15.95821456 12829
CMS-02 (GSAT 24)        
1 52903U 22067A   22253.11616684 -.00000280  00000+0  00000+0 0  9992
2 52903   0.0619 276.7526 0006112 191.6741  16.0301  1.00270449   829
MEASAT 3D               
1 52904U 22067B   22253.11581803 -.00000263  00000+0  00000+0 0  9998
2 52904   0.0547 314.8014 0001579 275.9256 251.5903  1.00269589   855
YAOGAN-35 02A           
1 52907U 22068A   22253.14784133  .00006959  00000+0  28914-3 0  9991
2 52907  34.9965 145.0454 0007472 280.9813 205.8575 15.23093668 12058
YAOGAN-35 02B           
1 52908U 22068B   22253.14454056  .00010674  00000+0  44181-3 0  9993
2 52908  34.9967 145.0201 0011891 315.5387 170.4409 15.23102076 12026
YAOGAN-35 03C           
1 52909U 22068C   22253.14819334  .00003916  00000+0  16370-3 0  9998
2 52909  34.9972 145.0468 0010332 265.3750 221.5909 15.23017210 12065
GAOFEN 12-3             
1 52912U 22069A   22253.49425196  .00000830  00000+0  11596-3 0  9997
2 52912  97.9822 140.5083 0000241 325.9513  34.1685 14.80280676 11061
NACHOS-1                
1 52917U 22015D   22252.66874683  .00045311  00000+0  57768-3 0  9994
2 52917  51.6405 274.6402 0003192 224.2336 135.8402 15.58837231 11355
SES-22                  
1 52933U 22071A   22253.53102938  .00000067  00000+0  00000+0 0  9990
2 52933   0.0595 276.9554 0002710 278.7702 209.9797  1.00272215   771
DS-EO                   
1 52935U 22072A   22253.33087162  .00002629  00000+0  15075-3 0  9990
2 52935   9.9996 271.0518 0006396 272.7063  87.2400 14.99705039 10776
NEUSAR                  
1 52937U 22072C   22253.30943242  .00003175  00000+0  19273-3 0  9990
2 52937   9.9859 270.8350 0007390 282.2957  77.6394 14.99856889 10809
WFOV (USA 332)          
1 52940U 22073A   22252.76258480 -.00000385  00000+0  00000+0 0  9992
2 52940   0.1613 105.1083 0000448 206.6508  70.7458  1.00273111   562
RECURVE                 
1 52944U 22074A   22252.82927218  .00006324  00000+0  26819-3 0  9994
2 52944  44.9927 100.3924 0002797 262.7444  97.3120 15.23939413 10603
NACHOS-2                
1 52945U 22074B   22252.88922104  .00007042  00000+0  29595-3 0  9992
2 52945  44.9986  99.9706 0002964 269.5221  90.5327 15.24095521 10613
SLINGSHOT 1             
1 52947U 22074D   22252.99604210  .00005487  00000+0  22932-3 0  9990
2 52947  44.9932  99.0741 0004723 254.8790 105.1569 15.24662984 10635
MISR-B-1                
1 52949U 22074F   22252.60880681  .00011741  00000+0  47601-3 0  9998
2 52949  44.9946 101.2833 0004942 269.3416  90.6899 15.24748465 10575
CTIM                    
1 52950U 22074G   22253.59268985  .00012883  00000+0  52117-3 0  9992
2 52950  45.0110  95.9873 0003619 282.4037  77.6309 15.24748989 10729
COSMOS 2557 [GLONASS-K] 
1 52984U 22075A   22252.80225479 -.00000087  00000+0  10000-3 0  9993
2 52984  64.8167   2.5824 0011082 278.2184 109.6964  2.13101948  1372
STARLINK-4260           
1 52986U 22076A   22253.25002315 -.01074431  00000+0 -55573-1 0  9996
2 52986  53.2174  64.4611 0001863  40.6682 163.2083 15.18464182 10611
STARLINK-4259           
1 52987U 22076B   22253.58334491 -.00010171  00000+0 -62152-3 0  9999
2 52987  53.2179  72.7887 0001684  60.9639  12.8028 15.08856801 10522
STARLINK-4291           
1 52988U 22076C   22252.91667824 -.01056892  00000+0 -53677-1 0  9996
2 52988  53.2174  65.9915 0001704  49.4669 145.9173 15.19510458  1304
STARLINK-4293           
1 52989U 22076D   22253.50001157  .00029979  00000+0  18945-2 0  9997
2 52989  53.2183  73.1585 0001867  53.5739 307.2779 15.08824697 10512
STARLINK-4286           
1 52990U 22076E   22252.91667824  .00038489  00000+0  24241-2 0  9994
2 52990  53.2190  75.7754 0001796  52.3462  38.2262 15.08826610  1301
STARLINK-4285           
1 52991U 22076F   22252.91667824  .00042721  00000+0  26880-2 0  9990
2 52991  53.2198  75.7739 0001820  57.1564  53.4020 15.08814346  1301
STARLINK-4269           
1 52992U 22076G   22252.91667824  .00042802  00000+0  26930-2 0  9997
2 52992  53.2199  75.7738 0001850  50.0425  80.5468 15.08814505  1307
STARLINK-4264           
1 52993U 22076H   22253.25002315 -.01061748  00000+0 -54697-1 0  9997
2 52993  53.2174  64.4702 0001605  51.1317 183.7690 15.19037524 10614
STARLINK-4256           
1 52994U 22076J   22253.58334491 -.01075114  00000+0 -55437-1 0  9992
2 52994  53.2174  62.9528 0001669  46.1100 227.6414 15.18573315 10667
STARLINK-4296           
1 52995U 22076K   22253.16667824 -.01064606  00000+0 -53155-1 0  9995
2 52995  53.2174  64.8653 0001751  45.9394 137.7454 15.20114613 10606
STARLINK-4295           
1 52996U 22076L   22253.16667824 -.01064261  00000+0 -53599-1 0  9995
2 52996  53.2174  64.8608 0001689  48.6222 120.2545 15.19819192 10607
STARLINK-4301           
1 52997U 22076M   22253.58334491 -.01064446  00000+0 -53267-1 0  9990
2 52997  53.2177  62.9731 0001637  39.9928 309.5559 15.20038061 10669
STARLINK-4254           
1 52998U 22076N   22253.25002315 -.01063149  00000+0 -53043-1 0  9993
2 52998  53.2175  64.4870 0001246  88.8770 202.1222 15.20138976 10619
STARLINK-4217           
1 52999U 22076P   22253.25002315 -.01063878  00000+0 -51168-1 0  9999
2 52999  53.2175  64.5044 0001152  78.7754 273.9049 15.21387217 10618
STARLINK-4194           
1 53000U 22076Q   22253.58334491 -.01063273  00000+0 -54132-1 0  9995
2 53000  53.2176  62.9650 0001594  44.0838 275.6389 15.19446980 10668
STARLINK-4190           
1 53001U 22076R   22253.25002315 -.01063952  00000+0 -50727-1 0  9997
2 53001  53.2175  64.5083 0001151  76.6103 290.1467 15.21682432 10612
STARLINK-4121           
1 53002U 22076S   22253.25002315 -.01063594  00000+0 -52503-1 0  9994
2 53002  53.2175  64.4920 0001452  49.8430 259.7809 15.20501581 10616
STARLINK-4255           
1 53003U 22076T   22253.50001157 -.01061622  00000+0 -50575-1 0  9993
2 53003  53.2177  63.3720 0001219  87.5949 237.3781 15.21702635 10659
STARLINK-4253           
1 53004U 22076U   22253.25002315 -.01063747  00000+0 -51609-1 0  9992
2 53004  53.2175  64.5003 0001157  85.9456 252.5202 15.21091971 10618
STARLINK-4288           
1 53005U 22076V   22253.58334491 -.01065548  00000+0 -50617-1 0  9991
2 53005  53.2176  62.9950 0001335  63.5113  12.2115 15.21809766 10661
STARLINK-4290           
1 53006U 22076W   22253.58334491 -.01065485  00000+0 -51505-1 0  9999
2 53006  53.2177  62.9881 0001349  57.8654 349.6833 15.21219401 10662
STARLINK-4215           
1 53007U 22076X   22253.58334491 -.01065290  00000+0 -49743-1 0  9995
2 53007  53.2176  63.0010 0001463  56.9507  46.6737 15.22386968 10663
STARLINK-4275           
1 53008U 22076Y   22253.50001157 -.01061364  00000+0 -49803-1 0  9993
2 53008  53.2177  63.3778 0001187  90.6063 258.5869 15.22212710 10656
STARLINK-4277           
1 53009U 22076Z   22253.58334491 -.01066119  00000+0 -14028-1 0  9996
2 53009  53.2175  57.9153 0001487  37.9001 292.7714 15.60375764 10739
STARLINK-4263           
1 53010U 22076AA  22253.58334491 -.01065437  00000+0 -50186-1 0  9995
2 53010  53.2176  62.9977 0001707  41.6187  48.2568 15.22091835 10669
STARLINK-4265           
1 53011U 22076AB  22253.58334491 -.01065651  00000+0 -14019-1 0  9999
2 53011  53.2176  57.9223 0001169  59.5138 271.8893 15.60382458 10733
STARLINK-4271           
1 53012U 22076AC  22253.58334491 -.01065078  00000+0 -49298-1 0  9990
2 53012  53.2176  63.0040 0001415  63.8568  53.3788 15.22682046 10660
STARLINK-4177           
1 53013U 22076AD  22253.58334491 -.01066309  00000+0 -14015-1 0  9998
2 53013  53.2176  57.9347 0001670  31.0192 302.5784 15.60403304 10739
STARLINK-4183           
1 53014U 22076AE  22253.58334491 -.01065465  00000+0 -14024-1 0  9991
2 53014  53.2175  57.9083 0001136  64.0936 265.8464 15.60368530 10732
STARLINK-4262           
1 53015U 22076AF  22253.58334491 -.01065760  00000+0 -14002-1 0  9996
2 53015  53.2176  57.9484 0001155  60.5152 274.5450 15.60416885 10730
STARLINK-4283           
1 53016U 22076AG  22253.16667824 -.01065668  00000+0 -13507-1 0  9996
2 53016  53.2174  59.9563 0001625  39.8459 109.6679 15.61338458 10663
